
# Worst residual: 11.06 km
# MJD 59411.000000 (2021 Jul 16  0:00)
1983-020A = NORAD 13901 = ASTRON
1 13901U 83020A   21197.49918769  .00000000  00000-0  00000-0 0 10879
2 13901 060.2630 073.9754 8129496 354.8958 041.7900 00.24292740    00

# Worst residual: 5.24 km
# MJD 59412.000000 (2021 Jul 17  0:00)
1983-020A = NORAD 13901 = ASTRON
1 13901U 83020A   21198.49918769  .00000000  00000-0  00000-0 0 10870
2 13901 060.3673 073.9277 8127594 354.9243 129.1812 00.24287338    03

# Worst residual: 11.58 km
# MJD 59413.000000 (2021 Jul 18  0:00)
1983-020A = NORAD 13901 = ASTRON
1 13901U 83020A   21199.49918769  .00000000  00000-0  00000-0 0 10871
2 13901 060.5496 073.8973 8127740 354.9327 216.6879 00.24296014    02

# Worst residual: 13.19 km
# MJD 59414.000000 (2021 Jul 19  0:00)
1983-020A = NORAD 13901 = ASTRON
1 13901U 83020A   21200.49918769  .00000000  00000-0  00000-0 0 10874
2 13901 060.7685 073.9193 8130410 354.9537 304.1762 00.24303053    06

# Worst residual: 51.78 km
# MJD 59415.000000 (2021 Jul 20  0:00)
1983-020A = NORAD 13901 = ASTRON
1 13901U 83020A   21201.49918769  .00000000  00000-0  00000-0 0 10875
2 13901 060.8385 073.9356 8135060 355.0283 031.5680 00.24217283    00

# Worst residual: 14.80 km
# MJD 59416.000000 (2021 Jul 21  0:00)
1983-020A = NORAD 13901 = ASTRON
1 13901U 83020A   21202.49918769  .00000000  00000-0  00000-0 0 10876
2 13901 060.8701 073.9321 8115927 355.0499 119.3280 00.24301921    07

# Worst residual: 10.23 km
# MJD 59417.000000 (2021 Jul 22  0:00)
1983-020A = NORAD 13901 = ASTRON
1 13901U 83020A   21203.49918769  .00000000  00000-0  00000-0 0 10877
2 13901 060.8987 073.9205 8100930 355.0397 206.9651 00.24288363    08

# Worst residual: 21.30 km
# MJD 59418.000000 (2021 Jul 23  0:00)
1983-020A = NORAD 13901 = ASTRON
1 13901U 83020A   21204.49918769  .00000000  00000-0  00000-0 0 10878
2 13901 060.8740 073.8936 8083948 355.0458 294.1590 00.24285585    06

# Worst residual: 20.46 km
# MJD 59419.000000 (2021 Jul 24  0:00)
1983-020A = NORAD 13901 = ASTRON
1 13901U 83020A   21205.49918769  .00000000  00000-0  00000-0 0 10879
2 13901 060.8910 073.8594 8074815 355.0009 021.4920 00.24276748    09

# Worst residual: 7.80 km
# MJD 59420.000000 (2021 Jul 25  0:00)
1983-020A = NORAD 13901 = ASTRON
1 13901U 83020A   21206.49918769  .00000000  00000-0  00000-0 0 10870
2 13901 060.9498 073.8389 8073261 355.0077 108.8737 00.24279478    01

# Worst residual: 4.94 km
# MJD 59421.000000 (2021 Jul 26  0:00)
1983-020A = NORAD 13901 = ASTRON
1 13901U 83020A   21207.49918769  .00000000  00000-0  00000-0 0 10871
2 13901 061.0673 073.8094 8076369 355.0032 196.3682 00.24298160    04

# Worst residual: 7.69 km
# MJD 59422.000000 (2021 Jul 27  0:00)
1983-020A = NORAD 13901 = ASTRON
1 13901U 83020A   21208.49918769  .00000000  00000-0  00000-0 0 10872
2 13901 061.1337 073.7981 8076865 355.0443 283.7804 00.24313911    02

# Worst residual: 15.43 km
# MJD 59423.000000 (2021 Jul 28  0:00)
1983-020A = NORAD 13901 = ASTRON
1 13901U 83020A   21209.49918769  .00000000  00000-0  00000-0 0 10873
2 13901 061.1748 073.7844 8070676 355.0355 011.2552 00.24324591    02

# Worst residual: 4.29 km
# MJD 59424.000000 (2021 Jul 29  0:00)
1983-020A = NORAD 13901 = ASTRON
1 13901U 83020A   21210.49918769  .00000000  00000-0  00000-0 0 10875
2 13901 061.2217 073.7647 8071447 355.0560 098.6053 00.24284823    08

# Worst residual: 3.23 km
# MJD 59425.000000 (2021 Jul 30  0:00)
1983-020A = NORAD 13901 = ASTRON
1 13901U 83020A   21211.49918769  .00000000  00000-0  00000-0 0 10876
2 13901 061.2136 073.7630 8068715 355.0736 185.9515 00.24282144    06

# Worst residual: 4.22 km
# MJD 59426.000000 (2021 Jul 31  0:00)
1983-020A = NORAD 13901 = ASTRON
1 13901U 83020A   21212.49918769  .00000000  00000-0  00000-0 0 10877
2 13901 061.1876 073.7457 8066638 355.0893 273.3646 00.24281797    09

# Worst residual: 33.69 km
# MJD 59427.000000 (2021 Aug  1  0:00)
1983-020A = NORAD 13901 = ASTRON
1 13901U 83020A   21213.49918769  .00000000  00000-0  00000-0 0 10878
2 13901 061.2334 073.7373 8070023 355.0946 000.8017 00.24212165    06

# Worst residual: 17.69 km
# MJD 59428.000000 (2021 Aug  2  0:00)
1983-020A = NORAD 13901 = ASTRON
1 13901U 83020A   21214.49918769  .00000000  00000-0  00000-0 0 10879
2 13901 061.2623 073.7340 8058765 355.1622 088.1166 00.24242413    05

# Worst residual: 5.89 km
# MJD 59429.000000 (2021 Aug  3  0:00)
1983-020A = NORAD 13901 = ASTRON
1 13901U 83020A   21215.49918769  .00000000  00000-0  00000-0 0 10870
2 13901 061.2492 073.7375 8060153 355.1047 175.6758 00.24278092    03

# Worst residual: 3.02 km
# MJD 59430.000000 (2021 Aug  4  0:00)
1983-020A = NORAD 13901 = ASTRON
1 13901U 83020A   21216.49918769  .00000000  00000-0  00000-0 0 10871
2 13901 061.2691 073.7252 8062722 355.1258 263.1050 00.24289940    08

# Worst residual: 20.94 km
# MJD 59431.000000 (2021 Aug  5  0:00)
1983-020A = NORAD 13901 = ASTRON
1 13901U 83020A   21217.49918769  .00000000  00000-0  00000-0 0 10872
2 13901 061.3191 073.7169 8061050 355.1139 350.5420 00.24257477    04

# Worst residual: 16.80 km
# MJD 59432.000000 (2021 Aug  6  0:00)
1983-020A = NORAD 13901 = ASTRON
1 13901U 83020A   21218.49918769  .00000000  00000-0  00000-0 0 10873
2 13901 061.3457 073.7223 8052553 355.1922 077.8521 00.24243181    06

# Worst residual: 5.07 km
# MJD 59433.000000 (2021 Aug  7  0:00)
1983-020A = NORAD 13901 = ASTRON
1 13901U 83020A   21219.49918769  .00000000  00000-0  00000-0 0 10874
2 13901 061.3925 073.7090 8051908 355.1438 165.4226 00.24281839    01

# Worst residual: 9.05 km
# MJD 59434.000000 (2021 Aug  8  0:00)
1983-020A = NORAD 13901 = ASTRON
1 13901U 83020A   21220.49918769  .00000000  00000-0  00000-0 0 10876
2 13901 061.4481 073.6961 8051550 355.1761 252.7612 00.24293136    09

# Worst residual: 36.43 km
# MJD 59435.000000 (2021 Aug  9  0:00)
1983-020A = NORAD 13901 = ASTRON
1 13901U 83020A   21221.49918769  .00000000  00000-0  00000-0 0 10877
2 13901 061.4775 073.6822 8039553 355.2044 340.0138 00.24356995    02

# Worst residual: 13.62 km
# MJD 59436.000000 (2021 Aug 10  0:00)
1983-020A = NORAD 13901 = ASTRON
1 13901U 83020A   21222.49918769  .00000000  00000-0  00000-0 0 10878
2 13901 061.5203 073.6582 8042075 355.1499 067.5511 00.24325605    08

# Worst residual: 3.83 km
# MJD 59437.000000 (2021 Aug 11  0:00)
1983-020A = NORAD 13901 = ASTRON
1 13901U 83020A   21223.49918769  .00000000  00000-0  00000-0 0 10879
2 13901 061.5551 073.6465 8038313 355.1880 154.9700 00.24308353    00

# Worst residual: 5.46 km
# MJD 59438.000000 (2021 Aug 12  0:00)
1983-020A = NORAD 13901 = ASTRON
1 13901U 83020A   21224.49918769  .00000000  00000-0  00000-0 0 10870
2 13901 061.5209 073.6358 8033704 355.1894 242.5109 00.24303681    01
